[{"OBJECT_NAME":"QIANFAN-88","OBJECT_ID":"2025-046R","EPOCH":"2026-03-09T22:31:45.904800","MEAN_MOTION":13.50999569,"ECCENTRICITY":0.00103721,"INCLINATION":88.9752,"RA_OF_ASC_NODE":310.8436,"ARG_OF_PERICENTER":241.3125,"MEAN_ANOMALY":118.6984,"EPHEMERIS_TYPE":0,"CLASSIFICATION_TYPE":"U","NORAD_CAT_ID":63174,"ELEMENT_SET_NO":999,"REV_AT_EPOCH":5928,"BSTAR":0.00022257174,"MEAN_MOTION_DOT":1.56e-6,"MEAN_MOTION_DDOT":0},{"OBJECT_NAME":"SCOUT A R\/B","OBJECT_ID":"1968-012B","EPOCH":"2026-03-09T22:30:06.305472","MEAN_MOTION":13.50327595,"ECCENTRICITY":0.00751174,"INCLINATION":90.0222,"RA_OF_ASC_NODE":273.24,"ARG_OF_PERICENTER":359.5378,"MEAN_ANOMALY":0.5691,"EPHEMERIS_TYPE":0,"CLASSIFICATION_TYPE":"U","NORAD_CAT_ID":3137,"ELEMENT_SET_NO":999,"REV_AT_EPOCH":85539,"BSTAR":0.00027195525,"MEAN_MOTION_DOT":1.86e-6,"MEAN_MOTION_DDOT":0}]
